STARLINK-30487          
1 57924U 23147M   26068.04723376  .00000880  00000+0  80172-4 0  9995
2 57924  43.0054 329.3320 0000049 222.8366 137.2472 15.02542965136521
SEDNA-1                 
1 60580U 24149DS  26068.76583836  .00008721  00000+0  60834-3 0  9998
2 60580  97.6673 149.7617 0008344 330.8481  29.2278 15.05597965 85421
